sat20735
1 20735U 90070A   20046.81677596  .00000015  00000-0  22071-4 0  9996
2 20735  82.5691 318.9047 0013302 297.5914 122.9950 12.65287769363360
